start=new Date('2022-04-12T00:00:00.000Z').valueOf();
sats=[{"MEAN_MOTION_DOT":"-0.00001210","CLASSIFICATION_TYPE":"U","LAUNCH_DATE":"2021-04-29","OBJECT_NAME":"STARLINK-2509","RCS_SIZE":"LARGE","REV_AT_EPOCH":"5281","MEAN_MOTION":"15.06379522","OBJECT_ID":"2021-036AU","ARG_OF_PERICENTER":"70.3281","MEAN_ELEMENT_THEORY":"SGP4","PERIOD":"95.593","TLE_LINE2":"2 48318  53.0570  31.6322 0001478  70.3281 289.7867 15.06379522 52817","APOAPSIS":"548.300","ECCENTRICITY":"0.00014780","EPOCH":"2022-04-11T19:22:52.546368","RA_OF_ASC_NODE":"31.6322","MEAN_MOTION_DDOT":"0.0000000000000","NORAD_CAT_ID":"48318","TIME_SYSTEM":"UTC","ELEMENT_SET_NO":"999","OBJECT_TYPE":"PAYLOAD","EPHEMERIS_TYPE":"0","BSTAR":"-0.00006238900000","COUNTRY_CODE":"US","MEAN_ANOMALY":"289.7867","INCLINATION":"53.0570","FILE":"3397723","DECAY_DATE":null,"PERIAPSIS":"546.253","SEMIMAJOR_AXIS":"6925.411","SITE":"AFETR","REF_FRAME":"TEME","TLE_LINE1":"1 48318U 21036AU  22101.80755262 -.00001210  00000-0 -62389-4 0  9995","CENTER_NAME":"EARTH","GP_ID":"201017192"},{"MEAN_MOTION_DDOT":"0.0000000000000","NORAD_CAT_ID":"48319","TIME_SYSTEM":"UTC","ELEMENT_SET_NO":"999","OBJECT_TYPE":"PAYLOAD","EPHEMERIS_TYPE":"0","BSTAR":"0.00002223500000","RA_OF_ASC_NODE":"32.8314","SITE":"AFETR","REF_FRAME":"TEME","TLE_LINE1":"1 48319U 21036AV  22101.53847807  .00000050  00000-0  22235-4 0  9998","CENTER_NAME":"EARTH","GP_ID":"200990945","COUNTRY_CODE":"US","INCLINATION":"53.0578","MEAN_ANOMALY":"297.2664","FILE":"3397515","DECAY_DATE":null,"PERIAPSIS":"546.181","SEMIMAJOR_AXIS":"6925.387","LAUNCH_DATE":"2021-04-29","OBJECT_NAME":"STARLINK-2512","RCS_SIZE":"LARGE","REV_AT_EPOCH":"5341","MEAN_MOTION_DOT":"0.00000050","CLASSIFICATION_TYPE":"U","EPOCH":"2022-04-11T12:55:24.505248","MEAN_MOTION":"15.06387442","ARG_OF_PERICENTER":"62.8482","OBJECT_ID":"2021-036AV","MEAN_ELEMENT_THEORY":"SGP4","PERIOD":"95.593","TLE_LINE2":"2 48319  53.0578  32.8314 0001547  62.8482 297.2664 15.06387442 53412","APOAPSIS":"548.323","ECCENTRICITY":"0.00015470"},{"RA_OF_ASC_NODE":"31.3726","NORAD_CAT_ID":"48320","MEAN_MOTION_DDOT":"0.0000000000000","TIME_SYSTEM":"UTC","ELEMENT_SET_NO":"999","BSTAR":"0.00005997900000","OBJECT_TYPE":"PAYLOAD","EPHEMERIS_TYPE":"0","FILE":"3397723","DECAY_DATE":null,"COUNTRY_CODE":"US","MEAN_ANOMALY":"287.9222","INCLINATION":"53.0554","PERIAPSIS":"546.207","SEMIMAJOR_AXIS":"6925.365","TLE_LINE1":"1 48320U 21036AW  22101.86651373  .00000612  00000-0  59979-4 0  9996","SITE":"AFETR","REF_FRAME":"TEME","GP_ID":"201016190","CENTER_NAME":"EARTH","MEAN_MOTION_DOT":"0.00000612","CLASSIFICATION_TYPE":"U","LAUNCH_DATE":"2021-04-29","REV_AT_EPOCH":"5282","OBJECT_NAME":"STARLINK-2029","RCS_SIZE":"LARGE","OBJECT_ID":"2021-036AW","ARG_OF_PERICENTER":"72.1928","MEAN_ELEMENT_THEORY":"SGP4","PERIOD":"95.592","MEAN_MOTION":"15.06394573","APOAPSIS":"548.254","ECCENTRICITY":"0.00014780","TLE_LINE2":"2 48320  53.0554  31.3726 0001478  72.1928 287.9222 15.06394573 52824","EPOCH":"2022-04-11T20:47:46.786272"},{"FILE":"3397517","DECAY_DATE":null,"COUNTRY_CODE":"US","INCLINATION":"53.0566","MEAN_ANOMALY":"298.2914","SEMIMAJOR_AXIS":"6925.389","PERIAPSIS":"546.121","TLE_LINE1":"1 48321U 21036AX  22101.53110765  .00001159  00000-0  96741-4 0  9991","SITE":"AFETR","REF_FRAME":"TEME","GP_ID":"200990463","CENTER_NAME":"EARTH","RA_OF_ASC_NODE":"32.8666","MEAN_MOTION_DDOT":"0.0000000000000","NORAD_CAT_ID":"48321","ELEMENT_SET_NO":"999","TIME_SYSTEM":"UTC","BSTAR":"0.00009674100000","OBJECT_TYPE":"PAYLOAD","EPHEMERIS_TYPE":"0","OBJECT_ID":"2021-036AX","ARG_OF_PERICENTER":"61.8240","PERIOD":"95.593","MEAN_ELEMENT_THEORY":"SGP4","MEAN_MOTION":"15.06386675","APOAPSIS":"548.387","ECCENTRICITY":"0.00016360","TLE_LINE2":"2 48321  53.0566  32.8666 0001636  61.8240 298.2914 15.06386675 53362","EPOCH":"2022-04-11T12:44:47.700960","MEAN_MOTION_DOT":"0.00001159","CLASSIFICATION_TYPE":"U","LAUNCH_DATE":"2021-04-29","REV_AT_EPOCH":"5336","OBJECT_NAME":"STARLINK-2457","RCS_SIZE":"LARGE"},{"NORAD_CAT_ID":"48322","MEAN_MOTION_DDOT":"0.0000000000000","TIME_SYSTEM":"UTC","ELEMENT_SET_NO":"999","OBJECT_TYPE":"PAYLOAD","EPHEMERIS_TYPE":"0","BSTAR":"0.00020391000000","RA_OF_ASC_NODE":"31.6888","SITE":"AFETR","REF_FRAME":"TEME","TLE_LINE1":"1 48322U 21036AY  22101.79279153  .00002757  00000-0  20391-3 0  9999","CENTER_NAME":"EARTH","GP_ID":"201017692","COUNTRY_CODE":"US","MEAN_ANOMALY":"294.5871","INCLINATION":"53.0560","FILE":"3397723","DECAY_DATE":null,"SEMIMAJOR_AXIS":"6925.350","PERIAPSIS":"546.061","LAUNCH_DATE":"2021-04-29","OBJECT_NAME":"STARLINK-2477","RCS_SIZE":"MEDIUM","REV_AT_EPOCH":"5281","MEAN_MOTION_DOT":"0.00002757","CLASSIFICATION_TYPE":"U","EPOCH":"2022-04-11T19:01:37.188192","MEAN_MOTION":"15.06399469","OBJECT_ID":"2021-036AY","ARG_OF_PERICENTER":"65.5291","MEAN_ELEMENT_THEORY":"SGP4","PERIOD":"95.592","TLE_LINE2":"2 48322  53.0560  31.6888 0001666  65.5291 294.5871 15.06399469 52815","APOAPSIS":"548.369","ECCENTRICITY":"0.00016660"},{"ARG_OF_PERICENTER":"53.4836","OBJECT_ID":"2021-036AZ","PERIOD":"95.593","MEAN_ELEMENT_THEORY":"SGP4","MEAN_MOTION":"15.06379601","APOAPSIS":"548.555","ECCENTRICITY":"0.00018470","TLE_LINE2":"2 48323  53.0558  32.9076 0001847  53.4836 306.6323 15.06379601 52776","EPOCH":"2022-04-11T12:34:11.001216","MEAN_MOTION_DOT":"0.00000420","CLASSIFICATION_TYPE":"U","LAUNCH_DATE":"2021-04-29","REV_AT_EPOCH":"5277","OBJECT_NAME":"STARLINK-2515","RCS_SIZE":"LARGE","FILE":"3397378","DECAY_DATE":null,"COUNTRY_CODE":"US","INCLINATION":"53.0558","MEAN_ANOMALY":"306.6323","PERIAPSIS":"545.997","SEMIMAJOR_AXIS":"6925.411","TLE_LINE1":"1 48323U 21036AZ  22101.52373844  .00000420  00000-0  47146-4 0  9996","SITE":"AFETR","REF_FRAME":"TEME","GP_ID":"200984374","CENTER_NAME":"EARTH","RA_OF_ASC_NODE":"32.9076","NORAD_CAT_ID":"48323","MEAN_MOTION_DDOT":"0.0000000000000","TIME_SYSTEM":"UTC","ELEMENT_SET_NO":"999","BSTAR":"0.00004714600000","OBJECT_TYPE":"PAYLOAD","EPHEMERIS_TYPE":"0"},{"MEAN_MOTION_DDOT":"0.0000000000000","NORAD_CAT_ID":"48324","ELEMENT_SET_NO":"999","TIME_SYSTEM":"UTC","OBJECT_TYPE":"PAYLOAD","EPHEMERIS_TYPE":"0","BSTAR":"0.00009216200000","RA_OF_ASC_NODE":"32.9218","SITE":"AFETR","REF_FRAME":"TEME","TLE_LINE1":"1 48324U 21036BA  22101.52005558  .00001091  00000-0  92162-4 0  9994","GP_ID":"200991040","CENTER_NAME":"EARTH","COUNTRY_CODE":"US","INCLINATION":"53.0552","MEAN_ANOMALY":"292.6416","FILE":"3397522","DECAY_DATE":null,"SEMIMAJOR_AXIS":"6925.406","PERIAPSIS":"546.266","LAUNCH_DATE":"2021-04-29","OBJECT_NAME":"STARLINK-2527","RCS_SIZE":"LARGE","REV_AT_EPOCH":"5336","MEAN_MOTION_DOT":"0.00001091","CLASSIFICATION_TYPE":"U","EPOCH":"2022-04-11T12:28:52.802112","MEAN_MOTION":"15.06381219","OBJECT_ID":"2021-036BA","ARG_OF_PERICENTER":"67.4727","PERIOD":"95.593","MEAN_ELEMENT_THEORY":"SGP4","TLE_LINE2":"2 48324  53.0552  32.9218 0001452  67.4727 292.6416 15.06381219 53366","APOAPSIS":"548.277","ECCENTRICITY":"0.00014520"},{"CLASSIFICATION_TYPE":"U","MEAN_MOTION_DOT":"0.00000435","REV_AT_EPOCH":"5336","RCS_SIZE":"LARGE","OBJECT_NAME":"STARLINK-2495","LAUNCH_DATE":"2021-04-29","ECCENTRICITY":"0.00014280","APOAPSIS":"548.238","TLE_LINE2":"2 48325  53.0554  32.9479 0001428  55.8999 304.2125 15.06388322 53362","MEAN_ELEMENT_THEORY":"SGP4","PERIOD":"95.593","OBJECT_ID":"2021-036BB","ARG_OF_PERICENTER":"55.8999","MEAN_MOTION":"15.06388322","EPOCH":"2022-04-11T12:23:33.367488","RA_OF_ASC_NODE":"32.9479","BSTAR":"0.00004810300000","EPHEMERIS_TYPE":"0","OBJECT_TYPE":"PAYLOAD","ELEMENT_SET_NO":"999","TIME_SYSTEM":"UTC","NORAD_CAT_ID":"48325","MEAN_MOTION_DDOT":"0.0000000000000","SEMIMAJOR_AXIS":"6925.384","PERIAPSIS":"546.260","DECAY_DATE":null,"FILE":"3397522","INCLINATION":"53.0554","MEAN_ANOMALY":"304.2125","COUNTRY_CODE":"US","GP_ID":"200990544","CENTER_NAME":"EARTH","TLE_LINE1":"1 48325U 21036BB  22101.51635842  .00000435  00000-0  48103-4 0  9996","REF_FRAME":"TEME","SITE":"AFETR"},{"MEAN_MOTION_DOT":"0.00000973","CLASSIFICATION_TYPE":"U","REV_AT_EPOCH":"5277","OBJECT_NAME":"STARLINK-2498","RCS_SIZE":"LARGE","LAUNCH_DATE":"2021-04-29","APOAPSIS":"548.187","ECCENTRICITY":"0.00014000","TLE_LINE2":"2 48326  53.0565  32.9495 0001400  78.4143 281.7003 15.06398841 52770","ARG_OF_PERICENTER":"78.4143","OBJECT_ID":"2021-036BC","MEAN_ELEMENT_THEORY":"SGP4","PERIOD":"95.592","MEAN_MOTION":"15.06398841","EPOCH":"2022-04-11T12:18:14.123808","RA_OF_ASC_NODE":"32.9495","BSTAR":"0.00008422100000","OBJECT_TYPE":"PAYLOAD","EPHEMERIS_TYPE":"0","MEAN_MOTION_DDOT":"0.0000000000000","NORAD_CAT_ID":"48326","TIME_SYSTEM":"UTC","ELEMENT_SET_NO":"999","SEMIMAJOR_AXIS":"6925.352","PERIAPSIS":"546.248","FILE":"3397378","DECAY_DATE":null,"COUNTRY_CODE":"US","INCLINATION":"53.0565","MEAN_ANOMALY":"281.7003","CENTER_NAME":"EARTH","GP_ID":"200985108","TLE_LINE1":"1 48326U 21036BC  22101.51266347  .00000973  00000-0  84221-4 0  9995","SITE":"AFETR","REF_FRAME":"TEME"},{"GP_ID":"200989388","CENTER_NAME":"EARTH","TLE_LINE1":"1 48327U 21036BD  22101.84071737 -.00001578  00000-0 -87075-4 0  9993","REF_FRAME":"TEME","SITE":"AFETR","PERIAPSIS":"546.166","SEMIMAJOR_AXIS":"6925.377","DECAY_DATE":null,"FILE":"3397473","MEAN_ANOMALY":"287.2046","INCLINATION":"53.0561","COUNTRY_CODE":"US","BSTAR":"-0.00008707500000","EPHEMERIS_TYPE":"0","OBJECT_TYPE":"PAYLOAD","ELEMENT_SET_NO":"999","TIME_SYSTEM":"UTC","NORAD_CAT_ID":"48327","MEAN_MOTION_DDOT":"0.0000000000000","RA_OF_ASC_NODE":"31.4751","EPOCH":"2022-04-11T20:10:37.980768","ECCENTRICITY":"0.00015540","APOAPSIS":"548.318","TLE_LINE2":"2 48327  53.0561  31.4751 0001554  72.9113 287.2046 15.06390657 53419","MEAN_ELEMENT_THEORY":"SGP4","PERIOD":"95.593","OBJECT_ID":"2021-036BD","ARG_OF_PERICENTER":"72.9113","MEAN_MOTION":"15.06390657","REV_AT_EPOCH":"5341","RCS_SIZE":"LARGE","OBJECT_NAME":"STARLINK-2502","LAUNCH_DATE":"2021-04-29","CLASSIFICATION_TYPE":"U","MEAN_MOTION_DOT":"-0.00001578"}];
